{
  "type": "FeatureCollection",
  "features": [
    {
      "type": "Feature",
      "properties": {
        "norad_id": 34554,
        "name": "COSMOS 2251 DEB",
        "group": "cosmos-2251-debris",
        "lat": -59.38233075913629,
        "lon": 151.35861634180313,
        "alt_km": 780.6912076243398,
        "timestamp": "2025-12-10T20:49:52.947176+00:00",
        "meta_object_name": "COSMOS 2251 DEB",
        "meta_object_id": "1993-036UQ",
        "meta_epoch": "2025-12-10T15:31:04.340064",
        "meta_mean_motion": 14.37931883,
        "meta_eccentricity": 0.00228913,
        "meta_inclination": 74.0386,
        "meta_ra_of_asc_node": 302.8453,
        "meta_arg_of_pericenter": 5.6824,
        "meta_mean_anomaly": 172.4043,
        "meta_ephemeris_type": 0,
        "meta_classification_type": "U",
        "meta_norad_cat_id": 34554,
        "meta_element_set_no": 999,
        "meta_rev_at_epoch": 87725,
        "meta_bstar": 0.00058259536,
        "meta_mean_motion_dot": 1.739e-05,
        "meta_mean_motion_ddot": 0,
        "tle_line1": "1 34554U 93036UQ  25344.64657801  .00001739  00000+0  58260-3 0  9990",
        "tle_line2": "2 34554  74.0386 302.8453 0022891   5.6824 172.4043 14.37931883877250"
      },
      "geometry": {
        "type": "Point",
        "coordinates": [
          151.35861634180313,
          -59.38233075913629
        ]
      }
    },
    {
      "type": "Feature",
      "properties": {
        "norad_id": 34556,
        "name": "COSMOS 2251 DEB",
        "group": "cosmos-2251-debris",
        "lat": 43.65751781403973,
        "lon": -67.33910826415008,
        "alt_km": 629.2353624514271,
        "timestamp": "2025-12-10T20:49:52.947186+00:00",
        "meta_object_name": "COSMOS 2251 DEB",
        "meta_object_id": "1993-036US",
        "meta_epoch": "2025-12-10T12:24:19.308096",
        "meta_mean_motion": 14.77682496,
        "meta_eccentricity": 0.00080943,
        "meta_inclination": 74.016,
        "meta_ra_of_asc_node": 129.2236,
        "meta_arg_of_pericenter": 188.5541,
        "meta_mean_anomaly": 238.6656,
        "meta_ephemeris_type": 0,
        "meta_classification_type": "U",
        "meta_norad_cat_id": 34556,
        "meta_element_set_no": 999,
        "meta_rev_at_epoch": 88296,
        "meta_bstar": 0.0036264065,
        "meta_mean_motion_dot": 0.00026059,
        "meta_mean_motion_ddot": 0,
        "tle_line1": "1 34556U 93036US  25344.51689014  .00026059  00000+0  36264-2 0  9990",
        "tle_line2": "2 34556  74.0160 129.2236 0008094 188.5541 238.6656 14.77682496882964"
      },
      "geometry": {
        "type": "Point",
        "coordinates": [
          -67.33910826415008,
          43.65751781403973
        ]
      }
    },
    {
      "type": "Feature",
      "properties": {
        "norad_id": 34560,
        "name": "COSMOS 2251 DEB",
        "group": "cosmos-2251-debris",
        "lat": 61.04780468413129,
        "lon": 176.98211014976928,
        "alt_km": 658.1276244293176,
        "timestamp": "2025-12-10T20:49:52.947196+00:00",
        "meta_object_name": "COSMOS 2251 DEB",
        "meta_object_id": "1993-036UW",
        "meta_epoch": "2025-12-10T10:53:17.120832",
        "meta_mean_motion": 14.72032238,
        "meta_eccentricity": 0.00148152,
        "meta_inclination": 74.017,
        "meta_ra_of_asc_node": 146.5845,
        "meta_arg_of_pericenter": 228.0209,
        "meta_mean_anomaly": 162.9903,
        "meta_ephemeris_type": 0,
        "meta_classification_type": "U",
        "meta_norad_cat_id": 34560,
        "meta_element_set_no": 999,
        "meta_rev_at_epoch": 88218,
        "meta_bstar": 0.0034126657,
        "meta_mean_motion_dot": 0.00021514,
        "meta_mean_motion_ddot": 0,
        "tle_line1": "1 34560U 93036UW  25344.45367038  .00021514  00000+0  34127-2 0  9994",
        "tle_line2": "2 34560  74.0170 146.5845 0014815 228.0209 162.9903 14.72032238882183"
      },
      "geometry": {
        "type": "Point",
        "coordinates": [
          176.98211014976928,
          61.04780468413129
        ]
      }
    },
    {
      "type": "Feature",
      "properties": {
        "norad_id": 34563,
        "name": "COSMOS 2251 DEB",
        "group": "cosmos-2251-debris",
        "lat": 2.905835163249525,
        "lon": -151.96446917552925,
        "alt_km": 734.6990591493768,
        "timestamp": "2025-12-10T20:49:52.947206+00:00",
        "meta_object_name": "COSMOS 2251 DEB",
        "meta_object_id": "1993-036UZ",
        "meta_epoch": "2025-12-10T10:00:11.559744",
        "meta_mean_motion": 14.46498513,
        "meta_eccentricity": 0.00138774,
        "meta_inclination": 74.0378,
        "meta_ra_of_asc_node": 208.0451,
        "meta_arg_of_pericenter": 302.0366,
        "meta_mean_anomaly": 232.4749,
        "meta_ephemeris_type": 0,
        "meta_classification_type": "U",
        "meta_norad_cat_id": 34563,
        "meta_element_set_no": 999,
        "meta_rev_at_epoch": 88163,
        "meta_bstar": 0.00065111263,
        "meta_mean_motion_dot": 2.32e-05,
        "meta_mean_motion_ddot": 0,
        "tle_line1": "1 34563U 93036UZ  25344.41680046  .00002320  00000+0  65111-3 0  9992",
        "tle_line2": "2 34563  74.0378 208.0451 0013877 302.0366 232.4749 14.46498513881630"
      },
      "geometry": {
        "type": "Point",
        "coordinates": [
          -151.96446917552925,
          2.905835163249525
        ]
      }
    },
    {
      "type": "Feature",
      "properties": {
        "norad_id": 34564,
        "name": "COSMOS 2251 DEB",
        "group": "cosmos-2251-debris",
        "lat": -1.0382426490005412,
        "lon": 61.77200285246017,
        "alt_km": 772.0258115672559,
        "timestamp": "2025-12-10T20:49:52.947215+00:00",
        "meta_object_name": "COSMOS 2251 DEB",
        "meta_object_id": "1993-036VA",
        "meta_epoch": "2025-12-10T10:31:30.180864",
        "meta_mean_motion": 14.40683874,
        "meta_eccentricity": 0.0018942,
        "meta_inclination": 74.0327,
        "meta_ra_of_asc_node": 242.2689,
        "meta_arg_of_pericenter": 346.6134,
        "meta_mean_anomaly": 128.0834,
        "meta_ephemeris_type": 0,
        "meta_classification_type": "U",
        "meta_norad_cat_id": 34564,
        "meta_element_set_no": 999,
        "meta_rev_at_epoch": 87973,
        "meta_bstar": 0.00040323833,
        "meta_mean_motion_dot": 1.264e-05,
        "meta_mean_motion_ddot": 0,
        "tle_line1": "1 34564U 93036VA  25344.43854376  .00001264  00000+0  40324-3 0  9999",
        "tle_line2": "2 34564  74.0327 242.2689 0018942 346.6134 128.0834 14.40683874879736"
      },
      "geometry": {
        "type": "Point",
        "coordinates": [
          61.77200285246017,
          -1.0382426490005412
        ]
      }
    },
    {
      "type": "Feature",
      "properties": {
        "norad_id": 34567,
        "name": "COSMOS 2251 DEB",
        "group": "cosmos-2251-debris",
        "lat": -19.193021859476936,
        "lon": 154.43170007359038,
        "alt_km": 830.2972888986005,
        "timestamp": "2025-12-10T20:49:52.947225+00:00",
        "meta_object_name": "COSMOS 2251 DEB",
        "meta_object_id": "1993-036VD",
        "meta_epoch": "2025-12-10T12:47:32.534016",
        "meta_mean_motion": 14.24012825,
        "meta_eccentricity": 0.00745214,
        "meta_inclination": 74.0395,
        "meta_ra_of_asc_node": 160.7517,
        "meta_arg_of_pericenter": 235.5082,
        "meta_mean_anomaly": 187.3187,
        "meta_ephemeris_type": 0,
        "meta_classification_type": "U",
        "meta_norad_cat_id": 34567,
        "meta_element_set_no": 999,
        "meta_rev_at_epoch": 87093,
        "meta_bstar": 0.00033685232,
        "meta_mean_motion_dot": 7.7e-06,
        "meta_mean_motion_ddot": 0,
        "tle_line1": "1 34567U 93036VD  25344.53301544  .00000770  00000+0  33685-3 0  9990",
        "tle_line2": "2 34567  74.0395 160.7517 0074521 235.5082 187.3187 14.24012825870937"
      },
      "geometry": {
        "type": "Point",
        "coordinates": [
          154.43170007359038,
          -19.193021859476936
        ]
      }
    },
    {
      "type": "Feature",
      "properties": {
        "norad_id": 34569,
        "name": "COSMOS 2251 DEB",
        "group": "cosmos-2251-debris",
        "lat": 35.961810967469944,
        "lon": 9.498295311990331,
        "alt_km": 847.1299546677974,
        "timestamp": "2025-12-10T20:49:52.947236+00:00",
        "meta_object_name": "COSMOS 2251 DEB",
        "meta_object_id": "1993-036VF",
        "meta_epoch": "2025-12-09T22:32:51.153216",
        "meta_mean_motion": 14.24741218,
        "meta_eccentricity": 0.01571902,
        "meta_inclination": 73.9904,
        "meta_ra_of_asc_node": 203.1997,
        "meta_arg_of_pericenter": 32.2311,
        "meta_mean_anomaly": 27.9249,
        "meta_ephemeris_type": 0,
        "meta_classification_type": "U",
        "meta_norad_cat_id": 34569,
        "meta_element_set_no": 999,
        "meta_rev_at_epoch": 86928,
        "meta_bstar": 0.00077344454,
        "meta_mean_motion_dot": 2.023e-05,
        "meta_mean_motion_ddot": 0,
        "tle_line1": "1 34569U 93036VF  25343.93948094  .00002023  00000+0  77344-3 0  9995",
        "tle_line2": "2 34569  73.9904 203.1997 0157190  32.2311  27.9249 14.24741218869287"
      },
      "geometry": {
        "type": "Point",
        "coordinates": [
          9.498295311990331,
          35.961810967469944
        ]
      }
    }
  ]
}